ORBCOMM FM115 [+]       
1 41186U 15081H   24084.91464693  .00005963  00000+0  12512-2 0  9990
2 41186  46.9997  12.9842 0000608 219.2765 140.8077 14.60496284442054
ORBCOMM FM108 [+]       
1 41187U 15081J   24085.24190972  .00002405  00000+0  57399-3 0  9995
2 41187  47.0049  64.2792 0002244  29.9469 330.1544 14.56389841441398
ORBCOMM FM117 [+]       
1 41188U 15081K   24084.31594381  .00001948  00000+0  47209-3 0  9995
2 41188  47.0010  67.5499 0002592  39.6206 320.4868 14.56387586441227
ORBCOMM FM116 [+]       
1 41189U 15081L   24084.92279727  .00007320  00000+0  16680-2 0  9995
2 41189  47.0005 154.5107 0001980 190.7542 169.3300 14.56431687440128
